IRIDIUM 144             
1 43249U 18030A   25190.59740060  .00000048  00000+0  10179-4 0  9995
2 43249  86.3945  73.6336 0002096  84.5912 275.5523 14.34217658381038
IRIDIUM 149             
1 43250U 18030B   25190.60374307  .00000102  00000+0  29271-4 0  9990
2 43250  86.3943  73.6018 0002068  84.8244 275.3188 14.34217835381059
IRIDIUM 157             
1 43251U 18030C   25190.62277126  .00000038  00000+0  63812-5 0  9992
2 43251  86.3945  73.6396 0002303  89.6954 270.4506 14.34217754381032
IRIDIUM 140             
1 43252U 18030D   25190.64179851  .00000052  00000+0  11381-4 0  9990
2 43252  86.3945  73.6452 0002081  81.0568 279.0864 14.34217827381095
IRIDIUM 145             
1 43253U 18030E   25190.62911287  .00000028  00000+0  30326-5 0  9990
2 43253  86.3945  73.6232 0001761  82.7059 277.4337 14.34217620381020
IRIDIUM 146             
1 43254U 18030F   25190.61008492 -.00000055  00000+0 -26798-4 0  9994
2 43254  86.3942  73.6443 0001666  81.6681 278.4703 14.34217202381030
IRIDIUM 148             
1 43255U 18030G   25190.22954000  .00000190  00000+0  60824-4 0  9993
2 43255  86.3946  73.8417 0002058  89.4272 270.7160 14.34216900381010
IRIDIUM 142             
1 43256U 18030H   25190.61642684  .00000061  00000+0  14599-4 0  9994
2 43256  86.3943  73.5812 0001644  84.4423 275.6961 14.34217972381032
